[{"OBJECT_NAME":"YAOGAN-40 03A","OBJECT_ID":"2025-199A","EPOCH":"2026-03-09T23:03:31.278816","MEAN_MOTION":14.26419606,"ECCENTRICITY":0.00148498,"INCLINATION":85.9829,"RA_OF_ASC_NODE":86.7514,"ARG_OF_PERICENTER":35.6299,"MEAN_ANOMALY":324.588,"EPHEMERIS_TYPE":0,"CLASSIFICATION_TYPE":"U","NORAD_CAT_ID":65544,"ELEMENT_SET_NO":999,"REV_AT_EPOCH":2627,"BSTAR":0.00017546994,"MEAN_MOTION_DOT":4.42e-6,"MEAN_MOTION_DDOT":0},{"OBJECT_NAME":"THOR BURNER 2 R\/B","OBJECT_ID":"1968-092B","EPOCH":"2026-03-09T23:09:26.706816","MEAN_MOTION":14.30991708,"ECCENTRICITY":0.0029875,"INCLINATION":98.8005,"RA_OF_ASC_NODE":219.4184,"ARG_OF_PERICENTER":97.6935,"MEAN_ANOMALY":262.7641,"EPHEMERIS_TYPE":0,"CLASSIFICATION_TYPE":"U","NORAD_CAT_ID":3522,"ELEMENT_SET_NO":999,"REV_AT_EPOCH":98608,"BSTAR":0.00013423485,"MEAN_MOTION_DOT":3.09e-6,"MEAN_MOTION_DDOT":0}]
